[{"OBJECT_NAME":"STARLINK-3879","OBJECT_ID":"2022-049Y","EPOCH":"2026-03-09T05:58:47.803296","MEAN_MOTION":15.08840536,"ECCENTRICITY":0.00015349,"INCLINATION":53.2173,"RA_OF_ASC_NODE":61.095,"ARG_OF_PERICENTER":87.6125,"MEAN_ANOMALY":272.5042,"EPHEMERIS_TYPE":0,"CLASSIFICATION_TYPE":"U","NORAD_CAT_ID":52473,"ELEMENT_SET_NO":999,"REV_AT_EPOCH":21218,"BSTAR":2.1225021e-5,"MEAN_MOTION_DOT":5.0e-7,"MEAN_MOTION_DDOT":0},{"OBJECT_NAME":"DMSP 5D-2 F11 DEB","OBJECT_ID":"1991-082AJ","EPOCH":"2026-03-09T06:39:32.486112","MEAN_MOTION":15.08629375,"ECCENTRICITY":0.00070318,"INCLINATION":98.5181,"RA_OF_ASC_NODE":189.4283,"ARG_OF_PERICENTER":237.8685,"MEAN_ANOMALY":152.6153,"EPHEMERIS_TYPE":0,"CLASSIFICATION_TYPE":"U","NORAD_CAT_ID":28321,"ELEMENT_SET_NO":999,"REV_AT_EPOCH":14288,"BSTAR":0.0082823802,"MEAN_MOTION_DOT":0.00131946,"MEAN_MOTION_DDOT":0}]
